NORAD_CAT_ID,OBJECT_NAME,OBJECT_TYPE,EPOCH,MEAN_MOTION,ECCENTRICITY,INCLINATION,RA_OF_ASC_NODE,ARG_OF_PERICENTER,MEAN_ANOMALY,BSTAR,MEAN_MOTION_DOT,MEAN_MOTION_DDOT,TLE_LINE0,TLE_LINE1,TLE_LINE2,SEMIMAJOR_AXIS,PERIOD,APOGEE,PERIGEE,DECAYED
52535.0,STARLINK-3958,PAYLOAD,2024-07-17 13:48:04,15.08828621,0.0001311,53.2184,303.1427,102.3845,257.7294,-4.3383e-05,-9.78e-06,0.0,0 STARLINK-3958,1 52535U 22051C   24199.57504893 -.00000978  00000-0 -43383-4 0  9997,2 52535  53.2184 303.1427 0001311 102.3845 257.7294 15.08828621120914,6917.915,95.438,540.687,538.873,0.0
52535.0,STARLINK-3958,PAYLOAD,2024-07-17 23:20:22,15.08835619,0.000135,53.2188,301.3585,104.2855,255.8287,5.3571e-05,5.65e-06,0.0,0 STARLINK-3958,1 52535U 22051C   24199.97248423  .00000565  00000-0  53571-4 0  9995,2 52535  53.2188 301.3585 0001350 104.2855 255.8287 15.08835619120970,6917.894,95.438,540.693,538.825,0.0
52535.0,STARLINK-3958,PAYLOAD,2024-07-18 13:38:55,15.08774371,6.27e-05,53.2178,298.6829,61.8176,298.288,-0.00047106,-7.763e-05,0.0,0 STARLINK-3958,1 52535U 22051C   24200.56869655 -.00007763  00000-0 -47106-3 0  9994,2 52535  53.2178 298.6829 0000627  61.8176 298.2880 15.08774371121066,6918.081,95.442,540.38,539.512,0.0
52535.0,STARLINK-3958,PAYLOAD,2024-07-18 20:00:21,15.08868012,9.54e-05,53.2173,297.4918,98.9391,261.1709,0.00024869,3.675e-05,0.0,0 STARLINK-3958,1 52535U 22051C   24200.83357703  .00003675  00000-0  24869-3 0  9997,2 52535  53.2173 297.4918 0000954  98.9391 261.1709 15.08868012121100,6917.795,95.436,540.32,539.0,0.0
52535.0,STARLINK-3958,PAYLOAD,2024-07-19 13:29:37,15.08838712,9.95e-05,53.2173,294.2227,86.8189,273.2917,0.00024631,3.634e-05,0.0,0 STARLINK-3958,1 52535U 22051C   24201.56224214  .00003634  00000-0  24631-3 0  9990,2 52535  53.2173 294.2227 0000995  86.8189 273.2917 15.08838712121215,6917.884,95.438,540.438,539.061,0.0
52535.0,STARLINK-3958,PAYLOAD,2024-07-20 13:20:23,15.08855829,7.16e-05,53.2169,289.7597,61.7024,298.404,0.0001566,2.207e-05,0.0,0 STARLINK-3958,1 52535U 22051C   24202.55583224  .00002207  00000-0  15660-3 0  9996,2 52535  53.2169 289.7597 0000716  61.7024 298.4040 15.08855829121292,6917.832,95.437,540.192,539.202,0.0
52535.0,STARLINK-3958,PAYLOAD,2024-07-21 11:35:49,15.08834565,0.0001373,53.2165,285.6025,77.4299,282.6847,5.8167e-06,-1.95e-06,0.0,0 STARLINK-3958,1 52535U 22051C   24203.48321356 -.00000195  00000-0  58167-5 0  9991,2 52535  53.2165 285.6025 0001373  77.4299 282.6847 15.08834565121505,6917.897,95.438,540.712,538.812,0.0
52535.0,STARLINK-3958,PAYLOAD,2024-07-22 09:51:12,15.08843619,0.0001594,53.2172,281.4333,67.5101,292.606,9.8897e-05,1.286e-05,0.0,0 STARLINK-3958,1 52535U 22051C   24204.41056635  .00001286  00000-0  98897-4 0  9994,2 52535  53.2172 281.4333 0001594  67.5101 292.6060 15.08843619121649,6917.869,95.437,540.837,538.632,0.0
52535.0,STARLINK-3958,PAYLOAD,2024-07-23 11:17:22,15.08849896,0.00014,53.2168,276.6764,79.062,281.053,0.00016486,2.337e-05,0.0,0 STARLINK-3958,1 52535U 22051C   24205.47040090  .00002337  00000-0  16486-3 0  9990,2 52535  53.2168 276.6764 0001400  79.0620 281.0530 15.08849896121803,6917.85,95.437,540.684,538.747,0.0
52535.0,STARLINK-3958,PAYLOAD,2024-07-24 04:46:37,15.08839552,0.0001169,53.216,273.4038,80.3224,279.7901,3.4149e-05,2.56e-06,0.0,0 STARLINK-3958,1 52535U 22051C   24206.19905016  .00000256  00000-0  34149-4 0  9993,2 52535  53.2160 273.4038 0001169  80.3224 279.7901 15.08839552121917,6917.882,95.438,540.555,538.938,0.0
52535.0,STARLINK-3958,PAYLOAD,2024-07-24 12:43:33,15.08837243,0.0001448,53.2169,271.9196,82.9726,277.143,-3.0428e-05,-7.72e-06,0.0,0 STARLINK-3958,1 52535U 22051C   24206.53025269 -.00000772  00000-0 -30428-4 0  9995,2 52535  53.2169 271.9196 0001448  82.9726 277.1430 15.08837243121890,6917.889,95.438,540.756,538.752,0.0
52535.0,STARLINK-3958,PAYLOAD,2024-07-25 04:37:24,15.08841712,0.0001369,53.2166,268.9462,79.0264,281.0882,4.1345e-05,3.7e-06,0.0,0 STARLINK-3958,1 52535U 22051C   24207.19264708  .00000370  00000-0  41345-4 0  9993,2 52535  53.2166 268.9462 0001369  79.0264 281.0882 15.08841712121997,6917.875,95.437,540.687,538.793,0.0
52535.0,STARLINK-3958,PAYLOAD,2024-07-25 09:23:33,15.08845294,0.0001395,53.2165,268.0544,78.9964,281.1185,7.4878e-05,9.04e-06,0.0,0 STARLINK-3958,1 52535U 22051C   24207.39136369  .00000904  00000-0  74878-4 0  9996,2 52535  53.2165 268.0544 0001395  78.9964 281.1185 15.08845294122090,6917.864,95.437,540.694,538.764,0.0
52535.0,STARLINK-3958,PAYLOAD,2024-07-25 14:09:42,15.08844801,0.0001406,53.2164,267.159,88.0176,272.0977,0.00014562,2.031e-05,0.0,0 STARLINK-3958,1 52535U 22051C   24207.59008086  .00002031  00000-0  14562-3 0  9998,2 52535  53.2164 267.1590 0001406  88.0176 272.0977 15.08844801122057,6917.866,95.437,540.703,538.758,0.0
52535.0,STARLINK-3958,PAYLOAD,2024-07-26 04:28:11,15.08834777,0.0001498,53.2158,264.4814,104.5206,255.5952,9.0222e-05,1.148e-05,0.0,0 STARLINK-3958,1 52535U 22051C   24208.18624789  .00001148  00000-0  90222-4 0  9994,2 52535  53.2158 264.4814 0001498 104.5206 255.5952 15.08834777122216,6917.896,95.438,540.798,538.725,0.0
52535.0,STARLINK-3958,PAYLOAD,2024-07-26 14:00:30,15.08841584,0.0001485,53.2159,262.6981,98.9552,261.1608,0.00013202,1.814e-05,0.0,0 STARLINK-3958,1 52535U 22051C   24208.58368344  .00001814  00000-0  13202-3 0  9992,2 52535  53.2159 262.6981 0001485  98.9552 261.1608 15.08841584122202,6917.876,95.437,540.768,538.713,0.0
52535.0,STARLINK-3958,PAYLOAD,2024-07-26 20:22:02,15.08843224,0.000133,53.2157,261.5111,85.1972,274.9172,0.00010851,1.44e-05,0.0,0 STARLINK-3958,1 52535U 22051C   24208.84864316  .00001440  00000-0  10851-3 0  9993,2 52535  53.2157 261.5111 0001330  85.1972 274.9172 15.08843224122319,6917.871,95.437,540.656,538.815,0.0
52535.0,STARLINK-3958,PAYLOAD,2024-07-27 10:40:31,15.08839644,0.0001519,53.2151,258.8355,88.1731,271.9435,-1.7869e-05,-5.72e-06,0.0,0 STARLINK-3958,1 52535U 22051C   24209.44480898 -.00000572  00000-0 -17869-4 0  9993,2 52535  53.2151 258.8355 0001519  88.1731 271.9435 15.08839644122407,6917.881,95.438,540.797,538.696,0.0
52535.0,STARLINK-3958,PAYLOAD,2024-07-28 12:06:40,15.0885177,0.0001444,53.2144,254.0769,84.6972,275.4185,0.00010452,1.376e-05,0.0,0 STARLINK-3958,1 52535U 22051C   24210.50463752  .00001376  00000-0  10452-3 0  9993,2 52535  53.2144 254.0769 0001444  84.6972 275.4185 15.08851770122563,6917.844,95.437,540.708,538.71,0.0
52535.0,STARLINK-3958,PAYLOAD,2024-07-29 10:22:05,15.08836095,0.0001553,53.2156,249.9142,91.3349,268.7821,1.8864e-05,1.2e-07,0.0,0 STARLINK-3958,1 52535U 22051C   24211.43201181  .00000012  00000-0  18864-4 0  9994,2 52535  53.2156 249.9142 0001553  91.3349 268.7821 15.08836095122709,6917.892,95.438,540.832,538.683,0.0
52535.0,STARLINK-3958,PAYLOAD,2024-07-29 19:54:25,15.0882304,0.0001539,53.2159,248.13,84.1679,275.9489,-8.5906e-05,-1.654e-05,0.0,0 STARLINK-3958,1 52535U 22051C   24211.82946652 -.00001654  00000-0 -85906-4 0  9992,2 52535  53.2159 248.1300 0001539  84.1679 275.9489 15.08823040122761,6917.932,95.439,540.862,538.733,0.0
52535.0,STARLINK-3958,PAYLOAD,2024-07-30 11:48:17,15.08829927,0.000168,53.2161,245.1532,92.6501,267.4683,-0.0001528,-2.718e-05,0.0,0 STARLINK-3958,1 52535U 22051C   24212.49187046 -.00002718  00000-0 -15280-3 0  9999,2 52535  53.2161 245.1532 0001680  92.6501 267.4683 15.08829927122798,6917.911,95.438,540.938,538.614,0.0
52535.0,STARLINK-3958,PAYLOAD,2024-07-30 19:45:12,15.08835314,0.0001789,53.2169,243.6682,85.9098,274.2099,-9.0652e-06,-4.32e-06,0.0,0 STARLINK-3958,1 52535U 22051C   24212.82306666 -.00000432  00000-0 -90652-5 0  9996,2 52535  53.2169 243.6682 0001789  85.9098 274.2099 15.08835314122919,6917.895,95.438,540.997,538.522,0.0
52535.0,STARLINK-3958,PAYLOAD,2024-07-31 08:28:14,15.08878822,0.0001659,53.2155,241.289,91.6,268.5182,0.0004528,6.933e-05,0.0,0 STARLINK-3958,1 52535U 22051C   24213.35294453  .00006933  00000-0  45280-3 0  9990,2 52535  53.2155 241.2890 0001659  91.6000 268.5182 15.08878822122923,6917.762,95.435,540.774,538.479,0.0
52535.0,STARLINK-3958,PAYLOAD,2024-08-01 05:08:17,15.0884423,0.0001939,53.2175,237.4215,110.1189,250.0012,0.00023578,3.467e-05,0.0,0 STARLINK-3958,1 52535U 22051C   24214.21409061  .00003467  00000-0  23578-3 0  9994,2 52535  53.2175 237.4215 0001939 110.1189 250.0012 15.08844230123126,6917.867,95.437,541.074,538.391,0.0
52535.0,STARLINK-3958,PAYLOAD,2024-08-01 08:19:04,15.0884321,0.0001415,53.2161,236.8328,94.6257,265.4897,7.7481e-05,9.45e-06,0.0,0 STARLINK-3958,1 52535U 22051C   24214.34657668  .00000945  00000-0  77481-4 0  9997,2 52535  53.2161 236.8328 0001415  94.6257 265.4897 15.08843210123140,6917.871,95.437,540.714,538.757,0.0
52535.0,STARLINK-3958,PAYLOAD,2024-08-02 08:09:51,15.08847136,0.0001776,53.2158,232.37,92.1105,268.0091,-0.00011225,-2.075e-05,0.0,0 STARLINK-3958,1 52535U 22051C   24215.34017731 -.00002075  00000-0 -11225-3 0  9990,2 52535  53.2158 232.3700 0001776  92.1105 268.0091 15.08847136123221,6917.859,95.437,540.952,538.495,0.0
52535.0,STARLINK-3958,PAYLOAD,2024-08-02 17:42:09,15.08858002,0.0001699,53.2158,230.5859,95.1081,265.0105,-0.00028847,-4.879e-05,0.0,0 STARLINK-3958,1 52535U 22051C   24215.73761140 -.00004879  00000-0 -28847-3 0  9995,2 52535  53.2158 230.5859 0001699  95.1081 265.0105 15.08858002123357,6917.825,95.436,540.866,538.515,0.0
52535.0,STARLINK-3958,PAYLOAD,2024-08-03 04:49:52,15.0883366,0.0001743,53.2156,228.5023,97.4162,262.7028,4.6366e-05,4.5e-06,0.0,0 STARLINK-3958,1 52535U 22051C   24216.20129850  .00000450  00000-0  46366-4 0  9990,2 52535  53.2156 228.5023 0001743  97.4162 262.7028 15.08833660123429,6917.9,95.438,540.971,538.559,0.0
52535.0,STARLINK-3958,PAYLOAD,2024-08-03 08:00:38,15.08835497,0.000174,53.2158,227.9081,98.2851,261.8338,5.7327e-05,6.24e-06,0.0,0 STARLINK-3958,1 52535U 22051C   24216.33377742  .00000624  00000-0  57327-4 0  9991,2 52535  53.2158 227.9081 0001740  98.2851 261.8338 15.08835497123377,6917.894,95.438,540.963,538.555,0.0
